[
    {
        "Altitude(m)": 555783.4974833867,
        "Argument of Periapsis(deg)": 0.006622991110713501,
        "Eccentricity": 0.0,
        "Inclination(deg)": 53.0,
        "Latitude(deg)": 34.24825567368969,
        "Longitude(deg)": 89.90632346862976,
        "Mean Anomaly(deg)": 44.637092867577586,
        "RAAN(deg)": 159.990143368528,
        "Satellite Name": "Starlink Shell 1 706",
        "Satellite Number": 706,
        "Semi-Major Axis(m)": 6931778.249405717,
        "Time(s)": 190
    },
    {
        "Altitude(m)": 555864.6775501743,
        "Argument of Periapsis(deg)": 0.0069715695902247375,
        "Eccentricity": 0.0,
        "Inclination(deg)": 53.0,
        "Latitude(deg)": 34.67917610921594,
        "Longitude(deg)": 90.4180177804219,
        "Mean Anomaly(deg)": 45.263924071134305,
        "RAAN(deg)": 159.98962459845055,
        "Satellite Name": "Starlink Shell 1 706",
        "Satellite Number": 706,
        "Semi-Major Axis(m)": 6931778.249405717,
        "Time(s)": 200
    },
    {
        "Altitude(m)": 555946.3382703423,
        "Argument of Periapsis(deg)": 0.007320148069735974,
        "Eccentricity": 0.0,
        "Inclination(deg)": 53.0,
        "Latitude(deg)": 35.10753136009001,
        "Longitude(deg)": 90.93544800681218,
        "Mean Anomaly(deg)": 45.890755274691,
        "RAAN(deg)": 159.98910582837306,
        "Satellite Name": "Starlink Shell 1 706",
        "Satellite Number": 706,
        "Semi-Major Axis(m)": 6931778.249405717,
        "Time(s)": 210
    },
    {
        "Altitude(m)": 556028.4239218882,
        "Argument of Periapsis(deg)": 0.007668726549247212,
        "Eccentricity": 0.0,
        "Inclination(deg)": 53.0,
        "Latitude(deg)": 35.53325433451707,
        "Longitude(deg)": 91.45873149444066,
        "Mean Anomaly(deg)": 46.51758647824774,
        "RAAN(deg)": 159.98858705829562,
        "Satellite Name": "Starlink Shell 1 706",
        "Satellite Number": 706,
        "Semi-Major Axis(m)": 6931778.249405717,
        "Time(s)": 220
    },
    {
        "Altitude(m)": 556110.878774966,
        "Argument of Periapsis(deg)": 0.00801730502875845,
        "Eccentricity": 0.0,
        "Inclination(deg)": 53.0,
        "Latitude(deg)": 35.956276395510024,
        "Longitude(deg)": 91.98798633961592,
        "Mean Anomaly(deg)": 47.14441768180444,
        "RAAN(deg)": 159.9880682882181,
        "Satellite Name": "Starlink Shell 1 706",
        "Satellite Number": 706,
        "Semi-Major Axis(m)": 6931778.249405717,
        "Time(s)": 230
    },
    {
        "Altitude(m)": 556193.6471206268,
        "Argument of Periapsis(deg)": 0.008365883508269684,
        "Eccentricity": 0.0,
        "Inclination(deg)": 53.0,
        "Latitude(deg)": 36.3765273295208,
        "Longitude(deg)": 92.52333179915873,
        "Mean Anomaly(deg)": 47.77124888536117,
        "RAAN(deg)": 159.98754951814067,
        "Satellite Name": "Starlink Shell 1 706",
        "Satellite Number": 706,
        "Semi-Major Axis(m)": 6931778.249405717,
        "Time(s)": 240
    },
    {
        "Altitude(m)": 556276.673299531,
        "Argument of Periapsis(deg)": 0.008714461987780921,
        "Eccentricity": 0.0,
        "Inclination(deg)": 53.0,
        "Latitude(deg)": 36.79393531574192,
        "Longitude(deg)": 93.06488717870161,
        "Mean Anomaly(deg)": 48.39808008891786,
        "RAAN(deg)": 159.98703074806318,
        "Satellite Name": "Starlink Shell 1 706",
        "Satellite Number": 706,
        "Semi-Major Axis(m)": 6931778.249405717,
        "Time(s)": 250
    },
    {
        "Altitude(m)": 556359.9017305897,
        "Argument of Periapsis(deg)": 0.009063040467292158,
        "Eccentricity": 0.0,
        "Inclination(deg)": 53.0,
        "Latitude(deg)": 37.20842689622351,
        "Longitude(deg)": 93.61277222362565,
        "Mean Anomaly(deg)": 49.024911292474584,
        "RAAN(deg)": 159.9865119779857,
        "Satellite Name": "Starlink Shell 1 706",
        "Satellite Number": 706,
        "Semi-Major Axis(m)": 6931778.249405717,
        "Time(s)": 260
    },
    {
        "Altitude(m)": 556443.2769395032,
        "Argument of Periapsis(deg)": 0.009411618946803396,
        "Eccentricity": 0.0,
        "Inclination(deg)": 53.0,
        "Latitude(deg)": 37.6199269469616,
        "Longitude(deg)": 94.16710749917468,
        "Mean Anomaly(deg)": 49.651742496031304,
        "RAAN(deg)": 159.98599320790822,
        "Satellite Name": "Starlink Shell 1 706",
        "Satellite Number": 706,
        "Semi-Major Axis(m)": 6931778.249405717,
        "Time(s)": 270
    },
    {
        "Altitude(m)": 556526.7435872207,
        "Argument of Periapsis(deg)": 0.009760197426314633,
        "Eccentricity": 0.0,
        "Inclination(deg)": 53.0,
        "Latitude(deg)": 38.02835865012757,
        "Longitude(deg)": 94.72801324627508,
        "Mean Anomaly(deg)": 50.27857369958802,
        "RAAN(deg)": 159.9854744378308,
        "Satellite Name": "Starlink Shell 1 706",
        "Satellite Number": 706,
        "Semi-Major Axis(m)": 6931778.249405717,
        "Time(s)": 280
    },
    {
        "Altitude(m)": 556610.2464982845,
        "Argument of Periapsis(deg)": 0.01010877590582587,
        "Eccentricity": 0.0,
        "Inclination(deg)": 53.0,
        "Latitude(deg)": 38.433643467621245,
        "Longitude(deg)": 95.29560973820571,
        "Mean Anomaly(deg)": 50.90540490314472,
        "RAAN(deg)": 159.98495566775327,
        "Satellite Name": "Starlink Shell 1 706",
        "Satellite Number": 706,
        "Semi-Major Axis(m)": 6931778.249405717,
        "Time(s)": 290
    },
    {
        "Altitude(m)": 556693.7306890405,
        "Argument of Periapsis(deg)": 0.010457354385337106,
        "Eccentricity": 0.0,
        "Inclination(deg)": 53.0,
        "Latitude(deg)": 38.835701116144214,
        "Longitude(deg)": 95.87001762463014,
        "Mean Anomaly(deg)": 51.53223610670144,
        "RAAN(deg)": 159.98443689767583,
        "Satellite Name": "Starlink Shell 1 706",
        "Satellite Number": 706,
        "Semi-Major Axis(m)": 6931778.249405717,
        "Time(s)": 300
    },
    {
        "Altitude(m)": 556777.1413957089,
        "Argument of Periapsis(deg)": 0.010805932864848343,
        "Eccentricity": 0.0,
        "Inclination(deg)": 53.0,
        "Latitude(deg)": 39.23444954400422,
        "Longitude(deg)": 96.4513567494992,
        "Mean Anomaly(deg)": 52.159067310258166,
        "RAAN(deg)": 159.98391812759834,
        "Satellite Name": "Starlink Shell 1 706",
        "Satellite Number": 706,
        "Semi-Major Axis(m)": 6931778.249405717,
        "Time(s)": 310
    },
    {
        "Altitude(m)": 556860.42410232,
        "Argument of Periapsis(deg)": 0.01115451134435958,
        "Eccentricity": 0.0,
        "Inclination(deg)": 53.0,
        "Latitude(deg)": 39.62980490987679,
        "Longitude(deg)": 97.0397464679606,
        "Mean Anomaly(deg)": 52.7858985138149,
        "RAAN(deg)": 159.98339935752088,
        "Satellite Name": "Starlink Shell 1 706",
        "Satellite Number": 706,
        "Semi-Major Axis(m)": 6931778.249405717,
        "Time(s)": 320
    },
    {
        "Altitude(m)": 556943.5245684554,
        "Argument of Periapsis(deg)": 0.011503089823870818,
        "Eccentricity": 0.0,
        "Inclination(deg)": 53.0,
        "Latitude(deg)": 40.02168156376489,
        "Longitude(deg)": 97.63530594879053,
        "Mean Anomaly(deg)": 53.412729717371604,
        "RAAN(deg)": 159.9828805874434,
        "Satellite Name": "Starlink Shell 1 706",
        "Satellite Number": 706,
        "Semi-Major Axis(m)": 6931778.249405717,
        "Time(s)": 330
    },
    {
        "Altitude(m)": 557026.3888568535,
        "Argument of Periapsis(deg)": 0.011851668303382053,
        "Eccentricity": 0.0,
        "Inclination(deg)": 53.0,
        "Latitude(deg)": 40.40999203041371,
        "Longitude(deg)": 98.23815294887399,
        "Mean Anomaly(deg)": 54.0395609209283,
        "RAAN(deg)": 159.98236181736593,
        "Satellite Name": "Starlink Shell 1 706",
        "Satellite Number": 706,
        "Semi-Major Axis(m)": 6931778.249405717,
        "Time(s)": 340
    },
    {
        "Altitude(m)": 557108.9633607697,
        "Argument of Periapsis(deg)": 0.012200246782893292,
        "Eccentricity": 0.0,
        "Inclination(deg)": 53.0,
        "Latitude(deg)": 40.7946469954531,
        "Longitude(deg)": 98.84840408490462,
        "Mean Anomaly(deg)": 54.666392124485014,
        "RAAN(deg)": 159.98184304728844,
        "Satellite Name": "Starlink Shell 1 706",
        "Satellite Number": 706,
        "Semi-Major Axis(m)": 6931778.249405717,
        "Time(s)": 350
    },
    {
        "Altitude(m)": 557191.1948311679,
        "Argument of Periapsis(deg)": 0.012548825262404526,
        "Eccentricity": 0.0,
        "Inclination(deg)": 53.0,
        "Latitude(deg)": 41.17555529455634,
        "Longitude(deg)": 99.46617508887144,
        "Mean Anomaly(deg)": 55.29322332804171,
        "RAAN(deg)": 159.981324277211,
        "Satellite Name": "Starlink Shell 1 706",
        "Satellite Number": 706,
        "Semi-Major Axis(m)": 6931778.249405717,
        "Time(s)": 360
    },
    {
        "Altitude(m)": 557273.030403691,
        "Argument of Periapsis(deg)": 0.012897403741915765,
        "Eccentricity": 0.0,
        "Inclination(deg)": 53.0,
        "Latitude(deg)": 41.552623905920555,
        "Longitude(deg)": 100.09157953393323,
        "Mean Anomaly(deg)": 55.92005453159848,
        "RAAN(deg)": 159.9808055071335,
        "Satellite Name": "Starlink Shell 1 706",
        "Satellite Number": 706,
        "Semi-Major Axis(m)": 6931778.249405717,
        "Time(s)": 370
    }
]